OBJECT_NAME,OBJECT_ID,EPOCH,MEAN_MOTION,ECCENTRICITY,INCLINATION,RA_OF_ASC_NODE,ARG_OF_PERICENTER,MEAN_ANOMALY,EPHEMERIS_TYPE,CLASSIFICATION_TYPE,NORAD_CAT_ID,ELEMENT_SET_NO,REV_AT_EPOCH,BSTAR,MEAN_MOTION_DOT,MEAN_MOTION_DDOT
STARLINK-33651,2025-076V,2026-07-09T17:21:00.724320,15.27595714,.0000818,42.9985,352.5237,270.1490,89.9268,0,U,63588,999,7049,.56076215E-3,.15208E-3,0
STARLINK-33788,2025-076W,2026-07-10T07:52:28.703136,15.27597030,.00029348,43.0039,349.3354,288.1012,71.9520,0,U,63589,999,7058,.72286507E-3,.19694E-3,0
STARLINK-33805,2025-076X,2026-07-09T17:59:52.343232,15.27594213,.00013345,43.0018,352.7202,267.0785,92.9914,0,U,63590,999,7049,.55490713E-3,.15045E-3,0
STARLINK-33702,2025-076Y,2026-07-09T21:35:43.418112,15.27596151,.00011789,43.0015,351.2750,268.9693,91.1023,0,U,63591,999,7052,.52247091E-3,.1415E-3,0
STARLINK-33666,2025-076Z,2026-07-09T17:37:39.608544,15.27588526,.00020489,42.9998,352.6126,264.8468,95.2149,0,U,63592,999,7049,.75412735E-3,.20553E-3,0
STARLINK-33723,2025-076AA,2026-07-09T10:45:53.207136,15.27597548,.00021539,43.0055,353.9077,284.2006,75.8607,0,U,63593,999,7045,.53681172E-3,.14547E-3,0
STARLINK-33791,2025-076AB,2026-07-09T17:41:21.232320,15.27566125,.00008742,42.9988,352.6315,255.9644,104.1111,0,U,63594,999,7049,.55433963E-3,.15017E-3,0
STARLINK-33831,2025-076AC,2026-07-09T21:50:30.601824,15.27599902,.00010814,43.0027,351.2859,258.2164,101.8566,0,U,63595,999,7052,.46935932E-3,.12684E-3,0
STARLINK-33879,2025-083A,2026-07-09T23:13:13.369440,15.27627974,.00059548,43.0150,34.9903,254.6323,105.3871,0,U,63634,999,6876,.87387775E-3,.23907E-3,0
STARLINK-33854,2025-083B,2026-07-09T20:38:00.819744,15.27620749,.00021951,42.9990,35.0492,275.9779,84.0823,0,U,63635,999,6875,.86493798E-3,.23646E-3,0
STARLINK-33864,2025-083C,2026-07-10T00:52:57.330624,15.27581970,.00018578,43.0039,34.6579,279.8461,80.2181,0,U,63636,999,6880,.53050662E-3,.14366E-3,0
STARLINK-33832,2025-083D,2026-07-09T23:35:14.083296,15.27580149,.00021774,43.0000,34.2492,245.9331,114.1293,0,U,63637,999,6877,.39636969E-3,.10661E-3,0
STARLINK-33856,2025-083E,2026-07-09T23:50:03.924672,15.27601563,.00034225,43.0002,34.3274,48.4332,311.6813,0,U,63638,999,6877,.83426402E-3,.22783E-3,0
STARLINK-33876,2025-083F,2026-07-09T21:03:51.496704,15.27666405,.00006907,43.0037,35.1728,276.4687,83.6086,0,U,63639,999,6875,.87758745E-3,.24029E-3,0
STARLINK-33859,2025-083G,2026-07-09T21:42:44.458272,15.27656903,.00016068,43.0100,35.3855,293.6123,66.4560,0,U,63640,999,6875,.90411943E-3,.24759E-3,0
STARLINK-33826,2025-083H,2026-07-10T06:00:02.000160,15.27606464,.0001115,43.0015,32.9146,276.2045,44.2199,0,U,63641,999,586,-.73324515E-3,-.204E-3,0
STARLINK-33836,2025-083J,2026-07-10T06:54:47.394720,15.27583088,.00012114,43.0037,33.1061,53.3621,306.7342,0,U,63642,999,6881,.49908021E-3,.13498E-3,0
STARLINK-33558,2025-083K,2026-07-09T23:40:48.389088,15.27589482,.00032062,43.0037,34.2836,5.7170,354.3718,0,U,63643,999,6877,.52145424E-3,.14119E-3,0
STARLINK-33852,2025-083L,2026-07-08T23:29:47.803200,15.27586445,.00019022,43.0048,40.4811,264.2267,95.8368,0,U,63644,999,6864,.54993713E-3,.14905E-3,0
STARLINK-33835,2025-083M,2026-07-09T21:09:25.408512,15.27646950,.0001381,43.0058,35.2043,273.7128,86.3565,0,U,63645,999,6878,.66544315E-3,.18132E-3,0
STARLINK-33661,2025-083N,2026-07-09T00:25:06.849696,15.27588291,.00015113,42.9970,39.9017,258.8008,101.2674,0,U,63646,999,6865,.4244783E-3,.1144E-3,0
STARLINK-33729,2025-083P,2026-07-09T23:11:22.811136,15.27594282,.00044824,43.0124,34.9836,256.1741,103.8613,0,U,63647,999,6876,.77382996E-3,.21106E-3,0
STARLINK-33717,2025-083Q,2026-07-09T23:44:29.594688,15.27592311,.00012674,43.0039,34.2917,302.6742,57.3987,0,U,63648,999,6877,.69918295E-3,.19035E-3,0
STARLINK-33684,2025-083R,2026-07-09T12:34:17.561568,15.27584076,.00014603,42.9999,36.8231,261.9383,98.1303,0,U,63649,999,6870,.77540154E-3,.21139E-3,0
STARLINK-33704,2025-083S,2026-07-08T22:58:21.422496,15.27586621,.00011604,43.0027,40.3100,1.9443,358.1413,0,U,63650,999,6861,.71804978E-3,.19553E-3,0
STARLINK-33705,2025-083T,2026-07-09T20:50:59.023680,15.27636212,.00004238,42.9975,35.1084,348.7168,11.3674,0,U,63651,999,6878,.88197186E-3,.24129E-3,0
STARLINK-33663,2025-083U,2026-07-09T23:48:11.390400,15.27593298,.00013734,43.0025,34.3072,289.9161,70.1543,0,U,63652,999,6877,.80348621E-3,.21923E-3,0
STARLINK-33866,2025-083V,2026-07-09T21:24:13.065696,15.27661901,.00016234,43.0045,35.2859,269.2005,90.8661,0,U,63653,999,6878,.89071925E-3,.24391E-3,0
STARLINK-33849,2025-083W,2026-07-09T21:20:33.141408,15.27624839,.00009016,43.0059,35.2639,276.8331,83.2418,0,U,63654,999,6875,.45410557E-3,.12272E-3,0
STARLINK-33873,2025-083X,2026-07-09T21:22:24.042720,15.27633152,.00012012,43.0043,35.2745,256.6299,103.4419,0,U,63655,999,6878,.63018534E-3,.17147E-3,0
