STARLINK-33651          
1 63588U 25076V   26190.72292505  .00015208  00000+0  56076-3 0  9992
2 63588  42.9985 352.5237 0000818 270.1490  89.9268 15.27595714 70494
STARLINK-33788          
1 63589U 25076W   26191.32810999  .00019694  00000+0  72287-3 0  9998
2 63589  43.0039 349.3354 0002934 288.1012  71.9520 15.27597030 70586
STARLINK-33805          
1 63590U 25076X   26190.74991138  .00015045  00000+0  55491-3 0  9994
2 63590  43.0018 352.7202 0001334 267.0785  92.9914 15.27594213 70491
STARLINK-33702          
1 63591U 25076Y   26190.89980808  .00014150  00000+0  52247-3 0  9995
2 63591  43.0015 351.2750 0001178 268.9693  91.1023 15.27596151 70524
STARLINK-33666          
1 63592U 25076Z   26190.73448621  .00020553  00000+0  75413-3 0  9995
2 63592  42.9998 352.6126 0002048 264.8468  95.2149 15.27588526 70494
STARLINK-33723          
1 63593U 25076AA  26190.44853249  .00014547  00000+0  53681-3 0  9999
2 63593  43.0055 353.9077 0002153 284.2006  75.8607 15.27597548 70454
STARLINK-33791          
1 63594U 25076AB  26190.73705130  .00015017  00000+0  55434-3 0  9998
2 63594  42.9988 352.6315 0000874 255.9644 104.1111 15.27566125 70497
STARLINK-33831          
1 63595U 25076AC  26190.91007641  .00012684  00000+0  46936-3 0  9995
2 63595  43.0027 351.2859 0001081 258.2164 101.8566 15.27599902 70527
STARLINK-33879          
1 63634U 25083A   26190.96751585  .00023907  00000+0  87388-3 0  9991
2 63634  43.0150  34.9903 0005954 254.6323 105.3871 15.27627974 68765
STARLINK-33854          
1 63635U 25083B   26190.85973171  .00023646  00000+0  86494-3 0  9994
2 63635  42.9990  35.0492 0002195 275.9779  84.0823 15.27620749 68758
STARLINK-33864          
1 63636U 25083C   26191.03677466  .00014366  00000+0  53051-3 0  9996
2 63636  43.0039  34.6579 0001857 279.8461  80.2181 15.27581970 68804
STARLINK-33832          
1 63637U 25083D   26190.98280189  .00010661  00000+0  39637-3 0  9990
2 63637  43.0000  34.2492 0002177 245.9331 114.1293 15.27580149 68773
STARLINK-33856          
1 63638U 25083E   26190.99310098  .00022783  00000+0  83426-3 0  9998
2 63638  43.0002  34.3274 0003422  48.4332 311.6813 15.27601563 68772
STARLINK-33876          
1 63639U 25083F   26190.87767936  .00024029  00000+0  87759-3 0  9991
2 63639  43.0037  35.1728 0000690 276.4687  83.6086 15.27666405 68756
STARLINK-33859          
1 63640U 25083G   26190.90468123  .00024759  00000+0  90412-3 0  9993
2 63640  43.0100  35.3855 0001606 293.6123  66.4560 15.27656903 68754
STARLINK-33826          
1 63641U 25083H   26191.25002315 -.00020400  00000+0 -73325-3 0  9995
2 63641  43.0015  32.9146 0001115 276.2045  44.2199 15.27606464  5863
STARLINK-33836          
1 63642U 25083J   26191.28804855  .00013498  00000+0  49908-3 0  9995
2 63642  43.0037  33.1061 0001211  53.3621 306.7342 15.27583088 68814
STARLINK-33558          
1 63643U 25083K   26190.98667117  .00014119  00000+0  52145-3 0  9998
2 63643  43.0037  34.2836 0003206   5.7170 354.3718 15.27589482 68778
STARLINK-33852          
1 63644U 25083L   26189.97902550  .00014905  00000+0  54994-3 0  9996
2 63644  43.0048  40.4811 0001902 264.2267  95.8368 15.27586445 68643
STARLINK-33835          
1 63645U 25083M   26190.88154408  .00018132  00000+0  66544-3 0  9990
2 63645  43.0058  35.2043 0001381 273.7128  86.3565 15.27646950 68783
STARLINK-33661          
1 63646U 25083N   26190.01744039  .00011440  00000+0  42448-3 0  9993
2 63646  42.9970  39.9017 0001511 258.8008 101.2674 15.27588291 68650
STARLINK-33729          
1 63647U 25083P   26190.96623624  .00021106  00000+0  77383-3 0  9990
2 63647  43.0124  34.9836 0004482 256.1741 103.8613 15.27594282 68763
STARLINK-33717          
1 63648U 25083Q   26190.98923142  .00019035  00000+0  69918-3 0  9994
2 63648  43.0039  34.2917 0001267 302.6742  57.3987 15.27592311 68777
STARLINK-33684          
1 63649U 25083R   26190.52381437  .00021139  00000+0  77540-3 0  9998
2 63649  42.9999  36.8231 0001460 261.9383  98.1303 15.27584076 68708
STARLINK-33704          
1 63650U 25083S   26189.95719239  .00019553  00000+0  71805-3 0  9995
2 63650  43.0027  40.3100 0001160   1.9443 358.1413 15.27586621 68614
STARLINK-33705          
1 63651U 25083T   26190.86873870  .00024129  00000+0  88197-3 0  9997
2 63651  42.9975  35.1084 0000423 348.7168  11.3674 15.27636212 68782
STARLINK-33663          
1 63652U 25083U   26190.99179850  .00021923  00000+0  80349-3 0  9999
2 63652  43.0025  34.3072 0001373 289.9161  70.1543 15.27593298 68776
STARLINK-33866          
1 63653U 25083V   26190.89181789  .00024391  00000+0  89072-3 0  9997
2 63653  43.0045  35.2859 0001623 269.2005  90.8661 15.27661901 68786
STARLINK-33849          
1 63654U 25083W   26190.88927247  .00012272  00000+0  45411-3 0  9998
2 63654  43.0059  35.2639 0000901 276.8331  83.2418 15.27624839 68754
STARLINK-33873          
1 63655U 25083X   26190.89055605  .00017147  00000+0  63019-3 0  9990
2 63655  43.0043  35.2745 0001201 256.6299 103.4419 15.27633152 68786
